norad_id,name,regime,epoch,line1,line2,inclination,eccentricity,mean_motion,raan,arg_pericenter,mean_anomaly
26566,COSMOS 2374 (GLONASS),NSO,09056.65081661,1 26566U 00063C   09056.65081661  .00000026  00000-0  10000-3 0  4400\,2 26566 064.5285 167.6712 0052356 215.2618 297.8884 02.13100285 65136,64.5285,0.0052356,2.13100285,167.6712,215.2618,297.8884
26566,COSMOS 2374 (GLONASS),NSO,09057.48481712,1 26566U 00063C   09057.48481712 +.00000033 +00000-0 +10000-3 0 04423\,2 26566 064.5285 167.6432 0052374 215.2683 217.6941 02.13100293065152,64.5285,0.0052374,2.13100293,167.6432,215.2683,217.6941
26566,COSMOS 2374 (GLONASS),NSO,09058.30180546,1 26566U 00063C   09058.30180546  .00000038  00000-0  10000-3 0  4410\,2 26566 064.5285 167.6159 0052380 215.2655 124.4580 02.13100296 65162,64.5285,0.005238,2.13100296,167.6159,215.2655,124.458
26566,COSMOS 2374 (GLONASS),NSO,09058.39707780,1 26566U 00063C   09058.39707780 +.00000039 +00000-0 +10000-3 0 04426\,2 26566 064.5284 167.6128 0052377 215.2729 197.5400 02.13100302065176,64.5284,0.0052377,2.13100302,167.6128,215.2729,197.54
26566,COSMOS 2374 (GLONASS),NSO,09059.34840339,1 26566U 00063C   09059.34840339  .00000041  00000-0  10000-3 0  4423\,2 26566 064.5283 167.5810 0052390 215.2835 207.3487 02.13100309 65199,64.5283,0.005239,2.13100309,167.581,215.2835,207.3487
26566,COSMOS 2374 (GLONASS),NSO,09059.76183819,1 26566U 00063C   09059.76183819 +.00000040 +00000-0 +10000-3 0 04432\,2 26566 064.5282 167.5671 0052394 215.2883 164.5146 02.13100309065208,64.5282,0.0052394,2.13100309,167.5671,215.2883,164.5146
26566,COSMOS 2374 (GLONASS),NSO,09060.30476313,1 26566U 00063C   09060.30476313 +.00000038 +00000-0 +10000-3 0 04457\,2 26566 064.5282 167.5489 0052398 215.2924 221.0212 02.13100314065215,64.5282,0.0052398,2.13100314,167.5489,215.2924,221.0212
26566,COSMOS 2374 (GLONASS),NSO,09061.17273682,1 26566U 00063C   09061.17273682  .00000032  00000-0  10000-3 0  4439\,2 26566 064.5282 167.5199 0052401 215.2932 166.8954 02.13100318 65232,64.5282,0.0052401,2.13100318,167.5199,215.2932,166.8954
26566,COSMOS 2374 (GLONASS),NSO,09061.80118760,1 26566U 00063C   09061.80118760 +.00000025 +00000-0 +10000-3 0 04458\,2 26566 064.5281 167.4989 0052425 215.3214 288.9897 02.13100327065240,64.5281,0.0052425,2.13100327,167.4989,215.3214,288.9897
26566,COSMOS 2374 (GLONASS),NSO,09062.18277130,1 26566U 00063C   09062.18277130  .00000021  00000-0  10000-3 0  4442\,2 26566 064.5281 167.4861 0052438 215.3397 221.7071 02.13100327 65255,64.5281,0.0052438,2.13100327,167.4861,215.3397,221.7071
26566,COSMOS 2374 (GLONASS),NSO,09062.58348450,1 26566U 00063C   09062.58348450 +.00000015 +00000-0 +10000-3 0 04465\,2 26566 064.5281 167.4727 0052442 215.3420 169.1164 02.13100336065267,64.5281,0.0052442,2.13100336,167.4727,215.342,169.1164
26566,COSMOS 2374 (GLONASS),NSO,09063.53987253,1 26566U 00063C   09063.53987253  .00000003  00000-0  10000-3 0  4457\,2 26566 064.5279 167.4407 0052444 215.3522 182.8096 02.13100348 65285,64.5279,0.0052444,2.13100348,167.4407,215.3522,182.8096
26566,COSMOS 2374 (GLONASS),NSO,09063.61459227,1 26566U 00063C   09063.61459227 +.00000002 +00000-0 +10000-3 0 04461\,2 26566 064.5278 167.4382 0052448 215.3538 240.1297 02.13100346065286,64.5278,0.0052448,2.13100346,167.4382,215.3538,240.1297
26566,COSMOS 2374 (GLONASS),NSO,09064.47814406,1 26566U 00063C   09064.47814406 -.00000009 +00000-0 +10000-3 0 04480\,2 26566 064.5278 167.4093 0052459 215.3678 182.5983 02.13100348065308,64.5278,0.0052459,2.13100348,167.4093,215.3678,182.5983
26566,COSMOS 2374 (GLONASS),NSO,09064.62829660,1 26566U 00063C   09064.62829660 -.00000010  00000-0  10000-3 0  4465\,2 26566 064.5278 167.4043 0052461 215.3735 297.7836 02.13100347 65305,64.5278,0.0052461,2.13100347,167.4043,215.3735,297.7836
26566,COSMOS 2374 (GLONASS),NSO,09065.46655773,1 26566U 00063C   09065.46655773 -.00000017 +00000-0 +10000-3 0 04489\,2 26566 064.5276 167.3763 0052471 215.3636 220.8740 02.13100347065325,64.5276,0.0052471,2.13100347,167.3763,215.3636,220.874
26566,COSMOS 2374 (GLONASS),NSO,09066.27302641,1 26566U 00063C   09066.27302641 -.00000019  00000-0  10000-3 0  4473\,2 26566 064.5276 167.3493 0052476 215.3619 119.5666 02.13100347 65333,64.5276,0.0052476,2.13100347,167.3493,215.3619,119.5666
26566,COSMOS 2374 (GLONASS),NSO,09066.89224730,1 26566U 00063C   09066.89224730 -.00000019 +00000-0 +10000-3 0 04495\,2 26566 064.5276 167.3286 0052490 215.3709 234.5991 02.13100347065350,64.5276,0.005249,2.13100347,167.3286,215.3709,234.5991
26566,COSMOS 2374 (GLONASS),NSO,09067.31644172,1 26566U 00063C   09067.31644172 -.00000017  00000-0  10000-3 0  4486\,2 26566 064.5275 167.3144 0052496 215.3679 200.0269 02.13100343 65367,64.5275,0.0052496,2.13100343,167.3144,215.3679,200.0269
26566,COSMOS 2374 (GLONASS),NSO,09068.84733755,1 26566U 00063C   09068.84733755 -.00000004 +00000-0 +10000-3 0 04500\,2 26566 064.5276 167.2639 0052575 215.4969 294.3357 02.13100191065395,64.5276,0.0052575,2.13100191,167.2639,215.4969,294.3357
26566,COSMOS 2374 (GLONASS),NSO,09069.17693536,1 26566U 00063C   09069.17693536 -.00000001  00000-0  10000-3 0  4494\,2 26566 064.5276 167.2521 0052507 215.3654 187.3262 02.13100342 65406,64.5276,0.0052507,2.13100342,167.2521,215.3654,187.3262
26566,COSMOS 2374 (GLONASS),NSO,09070.49668336,1 26566U 00063C   09070.49668336  .00000012  00000-0  10000-3 0  4504\,2 26566 064.5276 167.2079 0052511 215.3861 119.7634 02.13100341 65422,64.5276,0.0052511,2.13100341,167.2079,215.3861,119.7634
26566,COSMOS 2374 (GLONASS),NSO,09071.65755459,1 26566U 00063C   09071.65755459 +.00000018 +00000-0 +10000-3 0 04535\,2 26566 064.5273 167.1701 0052595 215.5128 290.2047 02.13100186065453,64.5273,0.0052595,2.13100186,167.1701,215.5128,290.2047
26566,COSMOS 2374 (GLONASS),NSO,09072.44002350,1 26566U 00063C   09072.44002350 +.00000018 +00000-0 +10000-3 0 04538\,2 26566 064.5276 167.1430 0052520 215.4137 170.5876 02.13100326065470,64.5276,0.005252,2.13100326,167.143,215.4137,170.5876
26566,COSMOS 2374 (GLONASS),NSO,09073.38916598,1 26566U 00063C   09073.38916598  .00000014  00000-0  10000-3 0  4525\,2 26566 064.5276 167.1112 0052522 215.4145 178.7311 02.13100325 65493,64.5276,0.0052522,2.13100325,167.1112,215.4145,178.7311
26566,COSMOS 2374 (GLONASS),NSO,09073.55962182,1 26566U 00063C   09073.55962182 +.00000013 +00000-0 +10000-3 0 04534\,2 26566 064.5276 167.1055 0052524 215.4130 309.4995 02.13100323065494,64.5276,0.0052524,2.13100323,167.1055,215.413,309.4995
26566,COSMOS 2374 (GLONASS),NSO,09074.77988987,1 26566U 00063C   09074.77988987  .00000003  00000-0  10000-3 0  4539\,2 26566 064.5275 167.0648 0052536 215.4104 165.6429 02.13100320 65529,64.5275,0.0052536,2.1310032,167.0648,215.4104,165.6429
26566,COSMOS 2374 (GLONASS),NSO,09075.33059853,1 26566U 00063C   09075.33059853 -.00000003 +00000-0 +10000-3 0 04556\,2 26566 064.5274 167.0463 0052543 215.4225 228.1121 02.13100316065535,64.5274,0.0052543,2.13100316,167.0463,215.4225,228.1121
26566,COSMOS 2374 (GLONASS),NSO,09076.58329507,1 26566U 00063C   09076.58329507 -.00000014  00000-0  10000-3 0  4541\,2 26566 064.5275 167.0043 0052564 215.4503 109.1025 02.13100308 65556,64.5275,0.0052564,2.13100308,167.0043,215.4503,109.1025
26566,COSMOS 2374 (GLONASS),NSO,09076.82484965,1 26566U 00063C   09076.82484965 -.00000016 +00000-0 +10000-3 0 04551\,2 26566 064.5276 166.9962 0052569 215.4540 294.4098 02.13100308065560,64.5276,0.0052569,2.13100308,166.9962,215.454,294.4098
26566,COSMOS 2374 (GLONASS),NSO,09077.75617650,1 26566U 00063C   09077.75617650 -.00000020  00000-0  10000-3 0  4558\,2 26566 064.5276 166.9655 0052631 215.4107 288.9293 02.13100283 65587,64.5276,0.0052631,2.13100283,166.9655,215.4107,288.9293
26566,COSMOS 2374 (GLONASS),NSO,09078.69280608,1 26566U 00063C   09078.69280608 -.00000021 +00000-0 +10000-3 0 04574\,2 26566 064.5275 166.9341 0052655 215.4633 287.4209 02.13100277065605,64.5275,0.0052655,2.13100277,166.9341,215.4633,287.4209
26566,COSMOS 2374 (GLONASS),NSO,09078.99496622,1 26566U 00063C   09078.99496622 -.00000020  00000-0  10000-3 0  4560\,2 26566 064.5275 166.9240 0052659 215.4646 159.2249 02.13100279 65614,64.5275,0.0052659,2.13100279,166.924,215.4646,159.2249
26566,COSMOS 2374 (GLONASS),NSO,09079.89022631,1 26566U 00063C   09079.89022631 -.00000015 +00000-0 +10000-3 0 04581\,2 26566 064.5275 166.8942 0052680 215.4651 126.0321 02.13100273065620,64.5275,0.005268,2.13100273,166.8942,215.4651,126.0321
26566,COSMOS 2374 (GLONASS),NSO,09080.19175741,1 26566U 00063C   09080.19175741 -.00000013  00000-0  10000-3 0  4574\,2 26566 064.5275 166.8841 0052692 215.4696 357.3501 02.13100271 65638,64.5275,0.0052692,2.13100271,166.8841,215.4696,357.3501
26566,COSMOS 2374 (GLONASS),NSO,09080.58323615,1 26566U 00063C   09080.58323615 -.00000009 +00000-0 +10000-3 0 04588\,2 26566 064.5275 166.8710 0052695 215.4748 297.6718 02.13100269065648,64.5275,0.0052695,2.13100269,166.871,215.4748,297.6718
26566,COSMOS 2374 (GLONASS),NSO,09081.28115166,1 26566U 00063C   09081.28115166 -.00000001  00000-0  10000-3 0  4588\,2 26566 064.5274 166.8474 0052707 215.4679 113.0918 02.13100270 65657,64.5274,0.0052707,2.1310027,166.8474,215.4679,113.0918
26566,COSMOS 2374 (GLONASS),NSO,09081.40874016,1 26566U 00063C   09081.40874016 +.00000000 +00000-0 +10000-3 0 04597\,2 26566 064.5274 166.8433 0052703 215.4757 210.9652 02.13100276065664,64.5274,0.0052703,2.13100276,166.8433,215.4757,210.9652
26566,COSMOS 2374 (GLONASS),NSO,09082.30968091,1 26566U 00063C   09082.30968091  .00000012  00000-0  10000-3 0  4597\,2 26566 064.5274 166.8132 0052723 215.4633 182.1435 02.13100274 65684,64.5274,0.0052723,2.13100274,166.8132,215.4633,182.1435
26566,COSMOS 2374 (GLONASS),NSO,09083.69462311,1 26566U 00063C   09083.69462311  .00000029  00000-0  10000-3 0  4604\,2 26566 064.5273 166.7669 0052731 215.4948 164.5847 02.13100280 65717,64.5273,0.0052731,2.1310028,166.7669,215.4948,164.5847
